[{"OBJECT_NAME":"CHECKMATE 4","OBJECT_ID":"2023-050C","EPOCH":"2026-03-09T17:33:56.570400","MEAN_MOTION":13.84801132,"ECCENTRICITY":0.00051188,"INCLINATION":81.0045,"RA_OF_ASC_NODE":167.2035,"ARG_OF_PERICENTER":230.7826,"MEAN_ANOMALY":129.2876,"EPHEMERIS_TYPE":0,"CLASSIFICATION_TYPE":"U","NORAD_CAT_ID":56164,"ELEMENT_SET_NO":999,"REV_AT_EPOCH":14837,"BSTAR":9.4449728e-5,"MEAN_MOTION_DOT":1.17e-6,"MEAN_MOTION_DDOT":0},{"OBJECT_NAME":"CHECKMATE 7","OBJECT_ID":"2023-050E","EPOCH":"2026-03-09T21:02:25.149408","MEAN_MOTION":13.8516674,"ECCENTRICITY":0.00065951,"INCLINATION":81.0032,"RA_OF_ASC_NODE":166.6398,"ARG_OF_PERICENTER":213.3356,"MEAN_ANOMALY":146.7386,"EPHEMERIS_TYPE":0,"CLASSIFICATION_TYPE":"U","NORAD_CAT_ID":56166,"ELEMENT_SET_NO":999,"REV_AT_EPOCH":14835,"BSTAR":0.00014609546,"MEAN_MOTION_DOT":1.77e-6,"MEAN_MOTION_DDOT":0}]
