CHECKMATE 4             
1 56164U 23050C   26068.73190475  .00000117  00000+0  94450-4 0  9994
2 56164  81.0045 167.2035 0005118 230.7826 129.2876 13.84801132148378
CHECKMATE 7             
1 56166U 23050E   26068.87667997  .00000177  00000+0  14610-3 0  9994
2 56166  81.0032 166.6398 0006595 213.3356 146.7386 13.85166740148354
